0 YAMAL 202
1 28089U 03053A   25230.85317168 -.00000096  00000-0  00000-0 0  9995
2 28089   5.5754  74.6255 0004366  94.7416 268.7434  1.00271304 79675
